COSMOS 2361             
1 25590U 98076A   12014.44974838  .00000032  00000-0  18679-4 0  8658
2 25590  82.9344 139.6762 0031700 351.6812   8.3812 13.72762866654166
COSMOS 2378             
1 26818U 01023A   12014.37891951  .00000021  00000-0  67173-5 0  9028
2 26818  82.9267 164.8265 0032307 313.9152  45.9339 13.73774385531552
COSMOS 2389             
1 27436U 02026A   12014.40056013  .00000056  00000-0  42411-4 0  5970
2 27436  82.9511 106.4992 0045844 194.5110 165.4732 13.74774925483290
COSMOS 2398             
1 27818U 03023A   12015.17554716  .00000073  00000-0  63544-4 0  4888
2 27818  82.9459  55.2021 0031121 176.6541 183.4814 13.71999961431415
COSMOS 2407             
1 28380U 04028A   12014.11105321  .00000044  00000-0  29885-4 0  3311
2 28380  82.9571  14.5691 0037958 219.9659 139.8696 13.75889280375574
COSMOS 2414             
1 28521U 05002A   12015.20290416  .00000076  00000-0  50798-4 0  5709
2 28521  82.9476  65.3172 0039024 220.0906 139.7365 13.87402320353710
COSMOS 2429             
1 32052U 07038A   12014.79056778  .00000086  00000-0  74379-4 0  9737
2 32052  82.9810 126.5216 0038573 178.0615 182.0694 13.74737333217932
COSMOS 2454             
1 35635U 09039A   12015.18496082  .00000075  00000-0  48105-4 0  1985
2 35635  82.9537  58.7750 0018325 200.3010 159.7421 13.89432138126083
COSMOS 2463             
1 36519U 10017A   12014.90898904  .00000019  00000-0  51040-5 0  7328
2 36519  82.9603 158.3612 0035820 343.5503  16.4486 13.71278697 86050
